{"type": "FeatureCollection", "features": [{"type": "Feature", "geometry": {"type": "Point", "coordinates": [696076.042779, 4484852.717488]}, "properties": {}}, {"type": "Feature", "geometry": {"type": "Point", "coordinates": [696097.327439, 4484852.81207]}, "properties": {}}, {"type": "Feature", "geometry": {"type": "Point", "coordinates": [696097.538655, 4484766.344338]}, "properties": {}}, {"type": "Feature", "geometry": {"type": "Point", "coordinates": [696076.95545, 4484766.694133]}, "properties": {}}], "crs": {"type": "name", "properties": {"name": "EPSG:32615"}}}