{"type": "FeatureCollection", "features": [{"type": "Feature", "geometry": {"type": "Polygon", "coordinates": [[[696075.651829, 4484852.745813], [696077.859887, 4484852.762412], [696077.875659, 4484848.411803], [696075.668429, 4484848.396864], [696075.651829, 4484852.745813]]]}, "properties": {}}, {"type": "Feature", "geometry": {"type": "Polygon", "coordinates": [[[696075.668429, 4484848.396864], [696077.875659, 4484848.411803], [696077.891432, 4484844.061195], [696075.685032, 4484844.047916], [696075.668429, 4484848.396864]]]}, "properties": {}}, {"type": "Feature", "geometry": {"type": "Polygon", "coordinates": [[[696075.685032, 4484844.047916], [696077.891432, 4484844.061195], [696077.907203, 4484839.710582], [696075.701634, 4484839.698965], [696075.685032, 4484844.047916]]]}, "properties": {}}, {"type": "Feature", "geometry": {"type": "Polygon", "coordinates": [[[696075.701634, 4484839.698965], [696077.907203, 4484839.710582], [696077.922976, 4484835.359974], [696075.718235, 4484835.350015], [696075.701634, 4484839.698965]]]}, "properties": {}}, {"type": "Feature", "geometry": {"type": "Polygon", "coordinates": [[[696075.718235, 4484835.350015], [696077.922976, 4484835.359974], [696077.938746, 4484831.009363], [696075.734838, 4484831.00106], [696075.718235, 4484835.350015]]]}, "properties": {}}, {"type": "Feature", "geometry": {"type": "Polygon", "coordinates": [[[696075.734838, 4484831.00106], [696077.938746, 4484831.009363], [696077.954519, 4484826.658752], [696075.75144, 4484826.652115], [696075.734838, 4484831.00106]]]}, "properties": {}}, {"type": "Feature", "geometry": {"type": "Polygon", "coordinates": [[[696075.75144, 4484826.652115], [696077.954519, 4484826.658752], [696077.970289, 4484822.308146], [696075.768041, 4484822.303164], [696075.75144, 4484826.652115]]]}, "properties": {}}, {"type": "Feature", "geometry": {"type": "Polygon", "coordinates": [[[696075.768041, 4484822.303164], [696077.970289, 4484822.308146], [696077.986062, 4484817.957535], [696075.784643, 4484817.954215], [696075.768041, 4484822.303164]]]}, "properties": {}}, {"type": "Feature", "geometry": {"type": "Polygon", "coordinates": [[[696075.784643, 4484817.954215], [696077.986062, 4484817.957535], [696078.001834, 4484813.606927], [696075.801246, 4484813.605264], [696075.784643, 4484817.954215]]]}, "properties": {}}, {"type": "Feature", "geometry": {"type": "Polygon", "coordinates": [[[696075.801246, 4484813.605264], [696078.001834, 4484813.606927], [696078.017607, 4484809.256313], [696075.817848, 4484809.256313], [696075.801246, 4484813.605264]]]}, "properties": {}}, {"type": "Feature", "geometry": {"type": "Polygon", "coordinates": [[[696075.817848, 4484809.256313], [696078.017607, 4484809.256313], [696078.033378, 4484804.905699], [696075.834449, 4484804.907364], [696075.817848, 4484809.256313]]]}, "properties": {}}, {"type": "Feature", "geometry": {"type": "Polygon", "coordinates": [[[696075.834449, 4484804.907364], [696078.033378, 4484804.905699], [696078.04915, 4484800.55509], [696075.851052, 4484800.55841], [696075.834449, 4484804.907364]]]}, "properties": {}}, {"type": "Feature", "geometry": {"type": "Polygon", "coordinates": [[[696075.851052, 4484800.55841], [696078.04915, 4484800.55509], [696078.064923, 4484796.204482], [696075.867654, 4484796.209462], [696075.851052, 4484800.55841]]]}, "properties": {}}, {"type": "Feature", "geometry": {"type": "Polygon", "coordinates": [[[696075.867654, 4484796.209462], [696078.064923, 4484796.204482], [696078.080693, 4484791.85388], [696075.884254, 4484791.86052], [696075.867654, 4484796.209462]]]}, "properties": {}}, {"type": "Feature", "geometry": {"type": "Polygon", "coordinates": [[[696075.884254, 4484791.86052], [696078.080693, 4484791.85388], [696078.096467, 4484787.503254], [696075.900857, 4484787.511565], [696075.884254, 4484791.86052]]]}, "properties": {}}, {"type": "Feature", "geometry": {"type": "Polygon", "coordinates": [[[696075.900857, 4484787.511565], [696078.096467, 4484787.503254], [696078.112237, 4484783.152658], [696075.917459, 4484783.162611], [696075.900857, 4484787.511565]]]}, "properties": {}}, {"type": "Feature", "geometry": {"type": "Polygon", "coordinates": [[[696075.917459, 4484783.162611], [696078.112237, 4484783.152658], [696078.128008, 4484778.80205], [696075.93406, 4484778.813675], [696075.917459, 4484783.162611]]]}, "properties": {}}, {"type": "Feature", "geometry": {"type": "Polygon", "coordinates": [[[696075.93406, 4484778.813675], [696078.128008, 4484778.80205], [696078.143782, 4484774.451441], [696075.950663, 4484774.464714], [696075.93406, 4484778.813675]]]}, "properties": {}}, {"type": "Feature", "geometry": {"type": "Polygon", "coordinates": [[[696075.950663, 4484774.464714], [696078.143782, 4484774.451441], [696078.159555, 4484770.100809], [696075.967265, 4484770.11576], [696075.950663, 4484774.464714]]]}, "properties": {}}, {"type": "Feature", "geometry": {"type": "Polygon", "coordinates": [[[696075.967265, 4484770.11576], [696078.159555, 4484770.100809], [696078.175323, 4484765.750219], [696075.983868, 4484765.766818], [696075.967265, 4484770.11576]]]}, "properties": {}}, {"type": "Feature", "geometry": {"type": "Polygon", "coordinates": [[[696077.859887, 4484852.762412], [696080.067944, 4484852.779012], [696080.082888, 4484848.426742], [696077.875659, 4484848.411803], [696077.859887, 4484852.762412]]]}, "properties": {}}, {"type": "Feature", "geometry": {"type": "Polygon", "coordinates": [[[696077.875659, 4484848.411803], [696080.082888, 4484848.426742], [696080.09783, 4484844.074472], [696077.891432, 4484844.061195], [696077.875659, 4484848.411803]]]}, "properties": {}}, {"type": "Feature", "geometry": {"type": "Polygon", "coordinates": [[[696077.891432, 4484844.061195], [696080.09783, 4484844.074472], [696080.112774, 4484839.722201], [696077.907203, 4484839.710582], [696077.891432, 4484844.061195]]]}, "properties": {}}, {"type": "Feature", "geometry": {"type": "Polygon", "coordinates": [[[696077.907203, 4484839.710582], [696080.112774, 4484839.722201], [696080.127714, 4484835.369933], [696077.922976, 4484835.359974], [696077.907203, 4484839.710582]]]}, "properties": {}}, {"type": "Feature", "geometry": {"type": "Polygon", "coordinates": [[[696077.922976, 4484835.359974], [696080.127714, 4484835.369933], [696080.142655, 4484831.017659], [696077.938746, 4484831.009363], [696077.922976, 4484835.359974]]]}, "properties": {}}, {"type": "Feature", "geometry": {"type": "Polygon", "coordinates": [[[696077.938746, 4484831.009363], [696080.142655, 4484831.017659], [696080.157595, 4484826.665394], [696077.954519, 4484826.658752], [696077.938746, 4484831.009363]]]}, "properties": {}}, {"type": "Feature", "geometry": {"type": "Polygon", "coordinates": [[[696077.954519, 4484826.658752], [696080.157595, 4484826.665394], [696080.17254, 4484822.31312], [696077.970289, 4484822.308146], [696077.954519, 4484826.658752]]]}, "properties": {}}, {"type": "Feature", "geometry": {"type": "Polygon", "coordinates": [[[696077.970289, 4484822.308146], [696080.17254, 4484822.31312], [696080.187478, 4484817.960855], [696077.986062, 4484817.957535], [696077.970289, 4484822.308146]]]}, "properties": {}}, {"type": "Feature", "geometry": {"type": "Polygon", "coordinates": [[[696077.986062, 4484817.957535], [696080.187478, 4484817.960855], [696080.202423, 4484813.608587], [696078.001834, 4484813.606927], [696077.986062, 4484817.957535]]]}, "properties": {}}, {"type": "Feature", "geometry": {"type": "Polygon", "coordinates": [[[696078.001834, 4484813.606927], [696080.202423, 4484813.608587], [696080.217362, 4484809.256313], [696078.017607, 4484809.256313], [696078.001834, 4484813.606927]]]}, "properties": {}}, {"type": "Feature", "geometry": {"type": "Polygon", "coordinates": [[[696078.017607, 4484809.256313], [696080.217362, 4484809.256313], [696080.232304, 4484804.904045], [696078.033378, 4484804.905699], [696078.017607, 4484809.256313]]]}, "properties": {}}, {"type": "Feature", "geometry": {"type": "Polygon", "coordinates": [[[696078.033378, 4484804.905699], [696080.232304, 4484804.904045], [696080.247248, 4484800.551771], [696078.04915, 4484800.55509], [696078.033378, 4484804.905699]]]}, "properties": {}}, {"type": "Feature", "geometry": {"type": "Polygon", "coordinates": [[[696078.04915, 4484800.55509], [696080.247248, 4484800.551771], [696080.26219, 4484796.199503], [696078.064923, 4484796.204482], [696078.04915, 4484800.55509]]]}, "properties": {}}, {"type": "Feature", "geometry": {"type": "Polygon", "coordinates": [[[696078.064923, 4484796.204482], [696080.26219, 4484796.199503], [696080.277131, 4484791.847235], [696078.080693, 4484791.85388], [696078.064923, 4484796.204482]]]}, "properties": {}}, {"type": "Feature", "geometry": {"type": "Polygon", "coordinates": [[[696078.080693, 4484791.85388], [696080.277131, 4484791.847235], [696080.292076, 4484787.49496], [696078.096467, 4484787.503254], [696078.080693, 4484791.85388]]]}, "properties": {}}, {"type": "Feature", "geometry": {"type": "Polygon", "coordinates": [[[696078.096467, 4484787.503254], [696080.292076, 4484787.49496], [696080.307017, 4484783.142692], [696078.112237, 4484783.152658], [696078.096467, 4484787.503254]]]}, "properties": {}}, {"type": "Feature", "geometry": {"type": "Polygon", "coordinates": [[[696078.112237, 4484783.152658], [696080.307017, 4484783.142692], [696080.321955, 4484778.790431], [696078.128008, 4484778.80205], [696078.112237, 4484783.152658]]]}, "properties": {}}, {"type": "Feature", "geometry": {"type": "Polygon", "coordinates": [[[696078.128008, 4484778.80205], [696080.321955, 4484778.790431], [696080.336897, 4484774.438156], [696078.143782, 4484774.451441], [696078.128008, 4484778.80205]]]}, "properties": {}}, {"type": "Feature", "geometry": {"type": "Polygon", "coordinates": [[[696078.143782, 4484774.451441], [696080.336897, 4484774.438156], [696080.35184, 4484770.085876], [696078.159555, 4484770.100809], [696078.143782, 4484774.451441]]]}, "properties": {}}, {"type": "Feature", "geometry": {"type": "Polygon", "coordinates": [[[696078.159555, 4484770.100809], [696080.35184, 4484770.085876], [696080.366781, 4484765.733614], [696078.175323, 4484765.750219], [696078.159555, 4484770.100809]]]}, "properties": {}}, {"type": "Feature", "geometry": {"type": "Polygon", "coordinates": [[[696080.067944, 4484852.779012], [696082.276, 4484852.795612], [696082.290113, 4484848.441681], [696080.082888, 4484848.426742], [696080.067944, 4484852.779012]]]}, "properties": {}}, {"type": "Feature", "geometry": {"type": "Polygon", "coordinates": [[[696080.082888, 4484848.426742], [696082.290113, 4484848.441681], [696082.304226, 4484844.087753], [696080.09783, 4484844.074472], [696080.082888, 4484848.426742]]]}, "properties": {}}, {"type": "Feature", "geometry": {"type": "Polygon", "coordinates": [[[696080.09783, 4484844.074472], [696082.304226, 4484844.087753], [696082.318339, 4484839.733822], [696080.112774, 4484839.722201], [696080.09783, 4484844.074472]]]}, "properties": {}}, {"type": "Feature", "geometry": {"type": "Polygon", "coordinates": [[[696080.112774, 4484839.722201], [696082.318339, 4484839.733822], [696082.33245, 4484835.379889], [696080.127714, 4484835.369933], [696080.112774, 4484839.722201]]]}, "properties": {}}, {"type": "Feature", "geometry": {"type": "Polygon", "coordinates": [[[696080.127714, 4484835.369933], [696082.33245, 4484835.379889], [696082.34656, 4484831.025961], [696080.142655, 4484831.017659], [696080.127714, 4484835.369933]]]}, "properties": {}}, {"type": "Feature", "geometry": {"type": "Polygon", "coordinates": [[[696080.142655, 4484831.017659], [696082.34656, 4484831.025961], [696082.360671, 4484826.672033], [696080.157595, 4484826.665394], [696080.142655, 4484831.017659]]]}, "properties": {}}, {"type": "Feature", "geometry": {"type": "Polygon", "coordinates": [[[696080.157595, 4484826.665394], [696082.360671, 4484826.672033], [696082.374781, 4484822.318103], [696080.17254, 4484822.31312], [696080.157595, 4484826.665394]]]}, "properties": {}}, {"type": "Feature", "geometry": {"type": "Polygon", "coordinates": [[[696080.17254, 4484822.31312], [696082.374781, 4484822.318103], [696082.388896, 4484817.964175], [696080.187478, 4484817.960855], [696080.17254, 4484822.31312]]]}, "properties": {}}, {"type": "Feature", "geometry": {"type": "Polygon", "coordinates": [[[696080.187478, 4484817.960855], [696082.388896, 4484817.964175], [696082.403007, 4484813.610247], [696080.202423, 4484813.608587], [696080.187478, 4484817.960855]]]}, "properties": {}}, {"type": "Feature", "geometry": {"type": "Polygon", "coordinates": [[[696080.202423, 4484813.608587], [696082.403007, 4484813.610247], [696082.41712, 4484809.256313], [696080.217362, 4484809.256313], [696080.202423, 4484813.608587]]]}, "properties": {}}, {"type": "Feature", "geometry": {"type": "Polygon", "coordinates": [[[696080.217362, 4484809.256313], [696082.41712, 4484809.256313], [696082.43123, 4484804.902379], [696080.232304, 4484804.904045], [696080.217362, 4484809.256313]]]}, "properties": {}}, {"type": "Feature", "geometry": {"type": "Polygon", "coordinates": [[[696080.232304, 4484804.904045], [696082.43123, 4484804.902379], [696082.445342, 4484800.548457], [696080.247248, 4484800.551771], [696080.232304, 4484804.904045]]]}, "properties": {}}, {"type": "Feature", "geometry": {"type": "Polygon", "coordinates": [[[696080.247248, 4484800.551771], [696082.445342, 4484800.548457], [696082.459452, 4484796.194529], [696080.26219, 4484796.199503], [696080.247248, 4484800.551771]]]}, "properties": {}}, {"type": "Feature", "geometry": {"type": "Polygon", "coordinates": [[[696080.26219, 4484796.199503], [696082.459452, 4484796.194529], [696082.473565, 4484791.840595], [696080.277131, 4484791.847235], [696080.26219, 4484796.199503]]]}, "properties": {}}, {"type": "Feature", "geometry": {"type": "Polygon", "coordinates": [[[696080.277131, 4484791.847235], [696082.473565, 4484791.840595], [696082.487676, 4484787.486673], [696080.292076, 4484787.49496], [696080.277131, 4484791.847235]]]}, "properties": {}}, {"type": "Feature", "geometry": {"type": "Polygon", "coordinates": [[[696080.292076, 4484787.49496], [696082.487676, 4484787.486673], [696082.501786, 4484783.132733], [696080.307017, 4484783.142692], [696080.292076, 4484787.49496]]]}, "properties": {}}, {"type": "Feature", "geometry": {"type": "Polygon", "coordinates": [[[696080.307017, 4484783.142692], [696082.501786, 4484783.132733], [696082.515901, 4484778.778805], [696080.321955, 4484778.790431], [696080.307017, 4484783.142692]]]}, "properties": {}}, {"type": "Feature", "geometry": {"type": "Polygon", "coordinates": [[[696080.321955, 4484778.790431], [696082.515901, 4484778.778805], [696082.530013, 4484774.424877], [696080.336897, 4484774.438156], [696080.321955, 4484778.790431]]]}, "properties": {}}, {"type": "Feature", "geometry": {"type": "Polygon", "coordinates": [[[696080.336897, 4484774.438156], [696082.530013, 4484774.424877], [696082.544122, 4484770.070943], [696080.35184, 4484770.085876], [696080.336897, 4484774.438156]]]}, "properties": {}}, {"type": "Feature", "geometry": {"type": "Polygon", "coordinates": [[[696080.35184, 4484770.085876], [696082.544122, 4484770.070943], [696082.558235, 4484765.717028], [696080.366781, 4484765.733614], [696080.35184, 4484770.085876]]]}, "properties": {}}, {"type": "Feature", "geometry": {"type": "Polygon", "coordinates": [[[696082.276, 4484852.795612], [696084.48406, 4484852.812209], [696084.497343, 4484848.456619], [696082.290113, 4484848.441681], [696082.276, 4484852.795612]]]}, "properties": {}}, {"type": "Feature", "geometry": {"type": "Polygon", "coordinates": [[[696082.290113, 4484848.441681], [696084.497343, 4484848.456619], [696084.510623, 4484844.101033], [696082.304226, 4484844.087753], [696082.290113, 4484848.441681]]]}, "properties": {}}, {"type": "Feature", "geometry": {"type": "Polygon", "coordinates": [[[696082.304226, 4484844.087753], [696084.510623, 4484844.101033], [696084.523902, 4484839.745441], [696082.318339, 4484839.733822], [696082.304226, 4484844.087753]]]}, "properties": {}}, {"type": "Feature", "geometry": {"type": "Polygon", "coordinates": [[[696082.318339, 4484839.733822], [696084.523902, 4484839.745441], [696084.537188, 4484835.389848], [696082.33245, 4484835.379889], [696082.318339, 4484839.733822]]]}, "properties": {}}, {"type": "Feature", "geometry": {"type": "Polygon", "coordinates": [[[696082.33245, 4484835.379889], [696084.537188, 4484835.389848], [696084.550468, 4484831.034261], [696082.34656, 4484831.025961], [696082.33245, 4484835.379889]]]}, "properties": {}}, {"type": "Feature", "geometry": {"type": "Polygon", "coordinates": [[[696082.34656, 4484831.025961], [696084.550468, 4484831.034261], [696084.563748, 4484826.678673], [696082.360671, 4484826.672033], [696082.34656, 4484831.025961]]]}, "properties": {}}, {"type": "Feature", "geometry": {"type": "Polygon", "coordinates": [[[696082.360671, 4484826.672033], [696084.563748, 4484826.678673], [696084.57703, 4484822.323082], [696082.374781, 4484822.318103], [696082.360671, 4484826.672033]]]}, "properties": {}}, {"type": "Feature", "geometry": {"type": "Polygon", "coordinates": [[[696082.374781, 4484822.318103], [696084.57703, 4484822.323082], [696084.590315, 4484817.967494], [696082.388896, 4484817.964175], [696082.374781, 4484822.318103]]]}, "properties": {}}, {"type": "Feature", "geometry": {"type": "Polygon", "coordinates": [[[696082.388896, 4484817.964175], [696084.590315, 4484817.967494], [696084.603594, 4484813.611907], [696082.403007, 4484813.610247], [696082.388896, 4484817.964175]]]}, "properties": {}}, {"type": "Feature", "geometry": {"type": "Polygon", "coordinates": [[[696082.403007, 4484813.610247], [696084.603594, 4484813.611907], [696084.616876, 4484809.256313], [696082.41712, 4484809.256313], [696082.403007, 4484813.610247]]]}, "properties": {}}, {"type": "Feature", "geometry": {"type": "Polygon", "coordinates": [[[696082.41712, 4484809.256313], [696084.616876, 4484809.256313], [696084.630155, 4484804.900725], [696082.43123, 4484804.902379], [696082.41712, 4484809.256313]]]}, "properties": {}}, {"type": "Feature", "geometry": {"type": "Polygon", "coordinates": [[[696082.43123, 4484804.902379], [696084.630155, 4484804.900725], [696084.643437, 4484800.545137], [696082.445342, 4484800.548457], [696082.43123, 4484804.902379]]]}, "properties": {}}, {"type": "Feature", "geometry": {"type": "Polygon", "coordinates": [[[696082.445342, 4484800.548457], [696084.643437, 4484800.545137], [696084.656721, 4484796.189543], [696082.459452, 4484796.194529], [696082.445342, 4484800.548457]]]}, "properties": {}}, {"type": "Feature", "geometry": {"type": "Polygon", "coordinates": [[[696082.459452, 4484796.194529], [696084.656721, 4484796.189543], [696084.670004, 4484791.833956], [696082.473565, 4484791.840595], [696082.459452, 4484796.194529]]]}, "properties": {}}, {"type": "Feature", "geometry": {"type": "Polygon", "coordinates": [[[696082.473565, 4484791.840595], [696084.670004, 4484791.833956], [696084.683283, 4484787.478356], [696082.487676, 4484787.486673], [696082.473565, 4484791.840595]]]}, "properties": {}}, {"type": "Feature", "geometry": {"type": "Polygon", "coordinates": [[[696082.487676, 4484787.486673], [696084.683283, 4484787.478356], [696084.696566, 4484783.12278], [696082.501786, 4484783.132733], [696082.487676, 4484787.486673]]]}, "properties": {}}, {"type": "Feature", "geometry": {"type": "Polygon", "coordinates": [[[696082.501786, 4484783.132733], [696084.696566, 4484783.12278], [696084.709846, 4484778.767186], [696082.515901, 4484778.778805], [696082.501786, 4484783.132733]]]}, "properties": {}}, {"type": "Feature", "geometry": {"type": "Polygon", "coordinates": [[[696082.515901, 4484778.778805], [696084.709846, 4484778.767186], [696084.723127, 4484774.411599], [696082.530013, 4484774.424877], [696082.515901, 4484778.778805]]]}, "properties": {}}, {"type": "Feature", "geometry": {"type": "Polygon", "coordinates": [[[696082.530013, 4484774.424877], [696084.723127, 4484774.411599], [696084.73641, 4484770.055999], [696082.544122, 4484770.070943], [696082.530013, 4484774.424877]]]}, "properties": {}}, {"type": "Feature", "geometry": {"type": "Polygon", "coordinates": [[[696082.544122, 4484770.070943], [696084.73641, 4484770.055999], [696084.749691, 4484765.700423], [696082.558235, 4484765.717028], [696082.544122, 4484770.070943]]]}, "properties": {}}, {"type": "Feature", "geometry": {"type": "Polygon", "coordinates": [[[696084.48406, 4484852.812209], [696086.69212, 4484852.82881], [696086.704572, 4484848.471558], [696084.497343, 4484848.456619], [696084.48406, 4484852.812209]]]}, "properties": {}}, {"type": "Feature", "geometry": {"type": "Polygon", "coordinates": [[[696084.497343, 4484848.456619], [696086.704572, 4484848.471558], [696086.717022, 4484844.114312], [696084.510623, 4484844.101033], [696084.497343, 4484848.456619]]]}, "properties": {}}, {"type": "Feature", "geometry": {"type": "Polygon", "coordinates": [[[696084.510623, 4484844.101033], [696086.717022, 4484844.114312], [696086.729475, 4484839.757058], [696084.523902, 4484839.745441], [696084.510623, 4484844.101033]]]}, "properties": {}}, {"type": "Feature", "geometry": {"type": "Polygon", "coordinates": [[[696084.523902, 4484839.745441], [696086.729475, 4484839.757058], [696086.741928, 4484835.399811], [696084.537188, 4484835.389848], [696084.523902, 4484839.745441]]]}, "properties": {}}, {"type": "Feature", "geometry": {"type": "Polygon", "coordinates": [[[696084.537188, 4484835.389848], [696086.741928, 4484835.399811], [696086.754377, 4484831.04256], [696084.550468, 4484831.034261], [696084.537188, 4484835.389848]]]}, "properties": {}}, {"type": "Feature", "geometry": {"type": "Polygon", "coordinates": [[[696084.550468, 4484831.034261], [696086.754377, 4484831.04256], [696086.766828, 4484826.685315], [696084.563748, 4484826.678673], [696084.550468, 4484831.034261]]]}, "properties": {}}, {"type": "Feature", "geometry": {"type": "Polygon", "coordinates": [[[696084.563748, 4484826.678673], [696086.766828, 4484826.685315], [696086.779283, 4484822.328062], [696084.57703, 4484822.323082], [696084.563748, 4484826.678673]]]}, "properties": {}}, {"type": "Feature", "geometry": {"type": "Polygon", "coordinates": [[[696084.57703, 4484822.323082], [696086.779283, 4484822.328062], [696086.791731, 4484817.970814], [696084.590315, 4484817.967494], [696084.57703, 4484822.323082]]]}, "properties": {}}, {"type": "Feature", "geometry": {"type": "Polygon", "coordinates": [[[696084.590315, 4484817.967494], [696086.791731, 4484817.970814], [696086.804185, 4484813.613563], [696084.603594, 4484813.611907], [696084.590315, 4484817.967494]]]}, "properties": {}}, {"type": "Feature", "geometry": {"type": "Polygon", "coordinates": [[[696084.603594, 4484813.611907], [696086.804185, 4484813.613563], [696086.816636, 4484809.256313], [696084.616876, 4484809.256313], [696084.603594, 4484813.611907]]]}, "properties": {}}, {"type": "Feature", "geometry": {"type": "Polygon", "coordinates": [[[696084.616876, 4484809.256313], [696086.816636, 4484809.256313], [696086.829084, 4484804.899065], [696084.630155, 4484804.900725], [696084.616876, 4484809.256313]]]}, "properties": {}}, {"type": "Feature", "geometry": {"type": "Polygon", "coordinates": [[[696084.630155, 4484804.900725], [696086.829084, 4484804.899065], [696086.84154, 4484800.541805], [696084.643437, 4484800.545137], [696084.630155, 4484804.900725]]]}, "properties": {}}, {"type": "Feature", "geometry": {"type": "Polygon", "coordinates": [[[696084.643437, 4484800.545137], [696086.84154, 4484800.541805], [696086.853988, 4484796.184564], [696084.656721, 4484796.189543], [696084.643437, 4484800.545137]]]}, "properties": {}}, {"type": "Feature", "geometry": {"type": "Polygon", "coordinates": [[[696084.656721, 4484796.189543], [696086.853988, 4484796.184564], [696086.866439, 4484791.827322], [696084.670004, 4484791.833956], [696084.656721, 4484796.189543]]]}, "properties": {}}, {"type": "Feature", "geometry": {"type": "Polygon", "coordinates": [[[696084.670004, 4484791.833956], [696086.866439, 4484791.827322], [696086.878892, 4484787.470062], [696084.683283, 4484787.478356], [696084.670004, 4484791.833956]]]}, "properties": {}}, {"type": "Feature", "geometry": {"type": "Polygon", "coordinates": [[[696084.683283, 4484787.478356], [696086.878892, 4484787.470062], [696086.891343, 4484783.112821], [696084.696566, 4484783.12278], [696084.683283, 4484787.478356]]]}, "properties": {}}, {"type": "Feature", "geometry": {"type": "Polygon", "coordinates": [[[696084.696566, 4484783.12278], [696086.891343, 4484783.112821], [696086.903796, 4484778.755579], [696084.709846, 4484778.767186], [696084.696566, 4484783.12278]]]}, "properties": {}}, {"type": "Feature", "geometry": {"type": "Polygon", "coordinates": [[[696084.709846, 4484778.767186], [696086.903796, 4484778.755579], [696086.916245, 4484774.398326], [696084.723127, 4484774.411599], [696084.709846, 4484778.767186]]]}, "properties": {}}, {"type": "Feature", "geometry": {"type": "Polygon", "coordinates": [[[696084.723127, 4484774.411599], [696086.916245, 4484774.398326], [696086.928698, 4484770.041072], [696084.73641, 4484770.055999], [696084.723127, 4484774.411599]]]}, "properties": {}}, {"type": "Feature", "geometry": {"type": "Polygon", "coordinates": [[[696084.73641, 4484770.055999], [696086.928698, 4484770.041072], [696086.941149, 4484765.683812], [696084.749691, 4484765.700423], [696084.73641, 4484770.055999]]]}, "properties": {}}, {"type": "Feature", "geometry": {"type": "Polygon", "coordinates": [[[696086.69212, 4484852.82881], [696088.900176, 4484852.845408], [696088.911797, 4484848.4865], [696086.704572, 4484848.471558], [696086.69212, 4484852.82881]]]}, "properties": {}}, {"type": "Feature", "geometry": {"type": "Polygon", "coordinates": [[[696086.704572, 4484848.471558], [696088.911797, 4484848.4865], [696088.923422, 4484844.127589], [696086.717022, 4484844.114312], [696086.704572, 4484848.471558]]]}, "properties": {}}, {"type": "Feature", "geometry": {"type": "Polygon", "coordinates": [[[696086.717022, 4484844.114312], [696088.923422, 4484844.127589], [696088.93504, 4484839.76868], [696086.729475, 4484839.757058], [696086.717022, 4484844.114312]]]}, "properties": {}}, {"type": "Feature", "geometry": {"type": "Polygon", "coordinates": [[[696086.729475, 4484839.757058], [696088.93504, 4484839.76868], [696088.946664, 4484835.40977], [696086.741928, 4484835.399811], [696086.729475, 4484839.757058]]]}, "properties": {}}, {"type": "Feature", "geometry": {"type": "Polygon", "coordinates": [[[696086.741928, 4484835.399811], [696088.946664, 4484835.40977], [696088.958285, 4484831.050856], [696086.754377, 4484831.04256], [696086.741928, 4484835.399811]]]}, "properties": {}}, {"type": "Feature", "geometry": {"type": "Polygon", "coordinates": [[[696086.754377, 4484831.04256], [696088.958285, 4484831.050856], [696088.969906, 4484826.691955], [696086.766828, 4484826.685315], [696086.754377, 4484831.04256]]]}, "properties": {}}, {"type": "Feature", "geometry": {"type": "Polygon", "coordinates": [[[696086.766828, 4484826.685315], [696088.969906, 4484826.691955], [696088.981527, 4484822.333047], [696086.779283, 4484822.328062], [696086.766828, 4484826.685315]]]}, "properties": {}}, {"type": "Feature", "geometry": {"type": "Polygon", "coordinates": [[[696086.779283, 4484822.328062], [696088.981527, 4484822.333047], [696088.993148, 4484817.974131], [696086.791731, 4484817.970814], [696086.779283, 4484822.328062]]]}, "properties": {}}, {"type": "Feature", "geometry": {"type": "Polygon", "coordinates": [[[696086.791731, 4484817.970814], [696088.993148, 4484817.974131], [696089.004769, 4484813.615223], [696086.804185, 4484813.613563], [696086.791731, 4484817.970814]]]}, "properties": {}}, {"type": "Feature", "geometry": {"type": "Polygon", "coordinates": [[[696086.804185, 4484813.613563], [696089.004769, 4484813.615223], [696089.01639, 4484809.256319], [696086.816636, 4484809.256313], [696086.804185, 4484813.613563]]]}, "properties": {}}, {"type": "Feature", "geometry": {"type": "Polygon", "coordinates": [[[696086.816636, 4484809.256313], [696089.01639, 4484809.256319], [696089.028015, 4484804.897399], [696086.829084, 4484804.899065], [696086.816636, 4484809.256313]]]}, "properties": {}}, {"type": "Feature", "geometry": {"type": "Polygon", "coordinates": [[[696086.829084, 4484804.899065], [696089.028015, 4484804.897399], [696089.039633, 4484800.538492], [696086.84154, 4484800.541805], [696086.829084, 4484804.899065]]]}, "properties": {}}, {"type": "Feature", "geometry": {"type": "Polygon", "coordinates": [[[696086.84154, 4484800.541805], [696089.039633, 4484800.538492], [696089.051257, 4484796.179584], [696086.853988, 4484796.184564], [696086.84154, 4484800.541805]]]}, "properties": {}}, {"type": "Feature", "geometry": {"type": "Polygon", "coordinates": [[[696086.853988, 4484796.184564], [696089.051257, 4484796.179584], [696089.062878, 4484791.820677], [696086.866439, 4484791.827322], [696086.853988, 4484796.184564]]]}, "properties": {}}, {"type": "Feature", "geometry": {"type": "Polygon", "coordinates": [[[696086.866439, 4484791.827322], [696089.062878, 4484791.820677], [696089.074496, 4484787.461769], [696086.878892, 4484787.470062], [696086.866439, 4484791.827322]]]}, "properties": {}}, {"type": "Feature", "geometry": {"type": "Polygon", "coordinates": [[[696086.878892, 4484787.470062], [696089.074496, 4484787.461769], [696089.086117, 4484783.102862], [696086.891343, 4484783.112821], [696086.878892, 4484787.470062]]]}, "properties": {}}, {"type": "Feature", "geometry": {"type": "Polygon", "coordinates": [[[696086.891343, 4484783.112821], [696089.086117, 4484783.102862], [696089.097741, 4484778.743954], [696086.903796, 4484778.755579], [696086.891343, 4484783.112821]]]}, "properties": {}}, {"type": "Feature", "geometry": {"type": "Polygon", "coordinates": [[[696086.903796, 4484778.755579], [696089.097741, 4484778.743954], [696089.109362, 4484774.385035], [696086.916245, 4484774.398326], [696086.903796, 4484778.755579]]]}, "properties": {}}, {"type": "Feature", "geometry": {"type": "Polygon", "coordinates": [[[696086.916245, 4484774.398326], [696089.109362, 4484774.385035], [696089.120983, 4484770.026127], [696086.928698, 4484770.041072], [696086.916245, 4484774.398326]]]}, "properties": {}}, {"type": "Feature", "geometry": {"type": "Polygon", "coordinates": [[[696086.928698, 4484770.041072], [696089.120983, 4484770.026127], [696089.132604, 4484765.66722], [696086.941149, 4484765.683812], [696086.928698, 4484770.041072]]]}, "properties": {}}, {"type": "Feature", "geometry": {"type": "Polygon", "coordinates": [[[696088.900176, 4484852.845408], [696091.108233, 4484852.862007], [696091.119027, 4484848.501437], [696088.911797, 4484848.4865], [696088.900176, 4484852.845408]]]}, "properties": {}}, {"type": "Feature", "geometry": {"type": "Polygon", "coordinates": [[[696088.911797, 4484848.4865], [696091.119027, 4484848.501437], [696091.129818, 4484844.140868], [696088.923422, 4484844.127589], [696088.911797, 4484848.4865]]]}, "properties": {}}, {"type": "Feature", "geometry": {"type": "Polygon", "coordinates": [[[696088.923422, 4484844.127589], [696091.129818, 4484844.140868], [696091.140609, 4484839.780298], [696088.93504, 4484839.76868], [696088.923422, 4484844.127589]]]}, "properties": {}}, {"type": "Feature", "geometry": {"type": "Polygon", "coordinates": [[[696088.93504, 4484839.76868], [696091.140609, 4484839.780298], [696091.151397, 4484835.419732], [696088.946664, 4484835.40977], [696088.93504, 4484839.76868]]]}, "properties": {}}, {"type": "Feature", "geometry": {"type": "Polygon", "coordinates": [[[696088.946664, 4484835.40977], [696091.151397, 4484835.419732], [696091.162188, 4484831.059162], [696088.958285, 4484831.050856], [696088.946664, 4484835.40977]]]}, "properties": {}}, {"type": "Feature", "geometry": {"type": "Polygon", "coordinates": [[[696088.958285, 4484831.050856], [696091.162188, 4484831.059162], [696091.172982, 4484826.698591], [696088.969906, 4484826.691955], [696088.958285, 4484831.050856]]]}, "properties": {}}, {"type": "Feature", "geometry": {"type": "Polygon", "coordinates": [[[696088.969906, 4484826.691955], [696091.172982, 4484826.698591], [696091.18377, 4484822.338024], [696088.981527, 4484822.333047], [696088.969906, 4484826.691955]]]}, "properties": {}}, {"type": "Feature", "geometry": {"type": "Polygon", "coordinates": [[[696088.981527, 4484822.333047], [696091.18377, 4484822.338024], [696091.194561, 4484817.977454], [696088.993148, 4484817.974131], [696088.981527, 4484822.333047]]]}, "properties": {}}, {"type": "Feature", "geometry": {"type": "Polygon", "coordinates": [[[696088.993148, 4484817.974131], [696091.194561, 4484817.977454], [696091.205352, 4484813.616883], [696089.004769, 4484813.615223], [696088.993148, 4484817.974131]]]}, "properties": {}}, {"type": "Feature", "geometry": {"type": "Polygon", "coordinates": [[[696089.004769, 4484813.615223], [696091.205352, 4484813.616883], [696091.216146, 4484809.256319], [696089.01639, 4484809.256319], [696089.004769, 4484813.615223]]]}, "properties": {}}, {"type": "Feature", "geometry": {"type": "Polygon", "coordinates": [[[696089.01639, 4484809.256319], [696091.216146, 4484809.256319], [696091.226937, 4484804.895739], [696089.028015, 4484804.897399], [696089.01639, 4484809.256319]]]}, "properties": {}}, {"type": "Feature", "geometry": {"type": "Polygon", "coordinates": [[[696089.028015, 4484804.897399], [696091.226937, 4484804.895739], [696091.237728, 4484800.535166], [696089.039633, 4484800.538492], [696089.028015, 4484804.897399]]]}, "properties": {}}, {"type": "Feature", "geometry": {"type": "Polygon", "coordinates": [[[696089.039633, 4484800.538492], [696091.237728, 4484800.535166], [696091.248519, 4484796.174605], [696089.051257, 4484796.179584], [696089.039633, 4484800.538492]]]}, "properties": {}}, {"type": "Feature", "geometry": {"type": "Polygon", "coordinates": [[[696089.051257, 4484796.179584], [696091.248519, 4484796.174605], [696091.259313, 4484791.814037], [696089.062878, 4484791.820677], [696089.051257, 4484796.179584]]]}, "properties": {}}, {"type": "Feature", "geometry": {"type": "Polygon", "coordinates": [[[696089.062878, 4484791.820677], [696091.259313, 4484791.814037], [696091.270104, 4484787.453464], [696089.074496, 4484787.461769], [696089.062878, 4484791.820677]]]}, "properties": {}}, {"type": "Feature", "geometry": {"type": "Polygon", "coordinates": [[[696089.074496, 4484787.461769], [696091.270104, 4484787.453464], [696091.280895, 4484783.092903], [696089.086117, 4484783.102862], [696089.074496, 4484787.461769]]]}, "properties": {}}, {"type": "Feature", "geometry": {"type": "Polygon", "coordinates": [[[696089.086117, 4484783.102862], [696091.280895, 4484783.092903], [696091.291686, 4484778.732341], [696089.097741, 4484778.743954], [696089.086117, 4484783.102862]]]}, "properties": {}}, {"type": "Feature", "geometry": {"type": "Polygon", "coordinates": [[[696089.097741, 4484778.743954], [696091.291686, 4484778.732341], [696091.302474, 4484774.371768], [696089.109362, 4484774.385035], [696089.097741, 4484778.743954]]]}, "properties": {}}, {"type": "Feature", "geometry": {"type": "Polygon", "coordinates": [[[696089.109362, 4484774.385035], [696091.302474, 4484774.371768], [696091.313268, 4484770.011194], [696089.120983, 4484770.026127], [696089.109362, 4484774.385035]]]}, "properties": {}}, {"type": "Feature", "geometry": {"type": "Polygon", "coordinates": [[[696089.120983, 4484770.026127], [696091.313268, 4484770.011194], [696091.324059, 4484765.650627], [696089.132604, 4484765.66722], [696089.120983, 4484770.026127]]]}, "properties": {}}, {"type": "Feature", "geometry": {"type": "Polygon", "coordinates": [[[696091.108233, 4484852.862007], [696093.316293, 4484852.878606], [696093.326254, 4484848.516376], [696091.119027, 4484848.501437], [696091.108233, 4484852.862007]]]}, "properties": {}}, {"type": "Feature", "geometry": {"type": "Polygon", "coordinates": [[[696091.119027, 4484848.501437], [696093.326254, 4484848.516376], [696093.336215, 4484844.154147], [696091.129818, 4484844.140868], [696091.119027, 4484848.501437]]]}, "properties": {}}, {"type": "Feature", "geometry": {"type": "Polygon", "coordinates": [[[696091.129818, 4484844.140868], [696093.336215, 4484844.154147], [696093.346176, 4484839.791917], [696091.140609, 4484839.780298], [696091.129818, 4484844.140868]]]}, "properties": {}}, {"type": "Feature", "geometry": {"type": "Polygon", "coordinates": [[[696091.140609, 4484839.780298], [696093.346176, 4484839.791917], [696093.356136, 4484835.429691], [696091.151397, 4484835.419732], [696091.140609, 4484839.780298]]]}, "properties": {}}, {"type": "Feature", "geometry": {"type": "Polygon", "coordinates": [[[696091.151397, 4484835.419732], [696093.356136, 4484835.429691], [696093.366097, 4484831.067458], [696091.162188, 4484831.059162], [696091.151397, 4484835.419732]]]}, "properties": {}}, {"type": "Feature", "geometry": {"type": "Polygon", "coordinates": [[[696091.162188, 4484831.059162], [696093.366097, 4484831.067458], [696093.376058, 4484826.705231], [696091.172982, 4484826.698591], [696091.162188, 4484831.059162]]]}, "properties": {}}, {"type": "Feature", "geometry": {"type": "Polygon", "coordinates": [[[696091.172982, 4484826.698591], [696093.376058, 4484826.705231], [696093.386019, 4484822.343004], [696091.18377, 4484822.338024], [696091.172982, 4484826.698591]]]}, "properties": {}}, {"type": "Feature", "geometry": {"type": "Polygon", "coordinates": [[[696091.18377, 4484822.338024], [696093.386019, 4484822.343004], [696093.395983, 4484817.980767], [696091.194561, 4484817.977454], [696091.18377, 4484822.338024]]]}, "properties": {}}, {"type": "Feature", "geometry": {"type": "Polygon", "coordinates": [[[696091.194561, 4484817.977454], [696093.395983, 4484817.980767], [696093.405944, 4484813.618543], [696091.205352, 4484813.616883], [696091.194561, 4484817.977454]]]}, "properties": {}}, {"type": "Feature", "geometry": {"type": "Polygon", "coordinates": [[[696091.205352, 4484813.616883], [696093.405944, 4484813.618543], [696093.415902, 4484809.256319], [696091.216146, 4484809.256319], [696091.205352, 4484813.616883]]]}, "properties": {}}, {"type": "Feature", "geometry": {"type": "Polygon", "coordinates": [[[696091.216146, 4484809.256319], [696093.415902, 4484809.256319], [696093.425863, 4484804.894086], [696091.226937, 4484804.895739], [696091.216146, 4484809.256319]]]}, "properties": {}}, {"type": "Feature", "geometry": {"type": "Polygon", "coordinates": [[[696091.226937, 4484804.895739], [696093.425863, 4484804.894086], [696093.435824, 4484800.531846], [696091.237728, 4484800.535166], [696091.226937, 4484804.895739]]]}, "properties": {}}, {"type": "Feature", "geometry": {"type": "Polygon", "coordinates": [[[696091.237728, 4484800.535166], [696093.435824, 4484800.531846], [696093.445788, 4484796.169619], [696091.248519, 4484796.174605], [696091.237728, 4484800.535166]]]}, "properties": {}}, {"type": "Feature", "geometry": {"type": "Polygon", "coordinates": [[[696091.248519, 4484796.174605], [696093.445788, 4484796.169619], [696093.455752, 4484791.807398], [696091.259313, 4484791.814037], [696091.248519, 4484796.174605]]]}, "properties": {}}, {"type": "Feature", "geometry": {"type": "Polygon", "coordinates": [[[696091.259313, 4484791.814037], [696093.455752, 4484791.807398], [696093.465713, 4484787.445164], [696091.270104, 4484787.453464], [696091.259313, 4484791.814037]]]}, "properties": {}}, {"type": "Feature", "geometry": {"type": "Polygon", "coordinates": [[[696091.270104, 4484787.453464], [696093.465713, 4484787.445164], [696093.475671, 4484783.082937], [696091.280895, 4484783.092903], [696091.270104, 4484787.453464]]]}, "properties": {}}, {"type": "Feature", "geometry": {"type": "Polygon", "coordinates": [[[696091.280895, 4484783.092903], [696093.475671, 4484783.082937], [696093.485632, 4484778.720722], [696091.291686, 4484778.732341], [696091.280895, 4484783.092903]]]}, "properties": {}}, {"type": "Feature", "geometry": {"type": "Polygon", "coordinates": [[[696091.291686, 4484778.732341], [696093.485632, 4484778.720722], [696093.495593, 4484774.358483], [696091.302474, 4484774.371768], [696091.291686, 4484778.732341]]]}, "properties": {}}, {"type": "Feature", "geometry": {"type": "Polygon", "coordinates": [[[696091.302474, 4484774.371768], [696093.495593, 4484774.358483], [696093.50556, 4484769.996237], [696091.313268, 4484770.011194], [696091.302474, 4484774.371768]]]}, "properties": {}}, {"type": "Feature", "geometry": {"type": "Polygon", "coordinates": [[[696091.313268, 4484770.011194], [696093.50556, 4484769.996237], [696093.515518, 4484765.634016], [696091.324059, 4484765.650627], [696091.313268, 4484770.011194]]]}, "properties": {}}, {"type": "Feature", "geometry": {"type": "Polygon", "coordinates": [[[696093.316293, 4484852.878606], [696095.524352, 4484852.895205], [696095.533483, 4484848.531316], [696093.326254, 4484848.516376], [696093.316293, 4484852.878606]]]}, "properties": {}}, {"type": "Feature", "geometry": {"type": "Polygon", "coordinates": [[[696093.326254, 4484848.516376], [696095.533483, 4484848.531316], [696095.542614, 4484844.167429], [696093.336215, 4484844.154147], [696093.326254, 4484848.516376]]]}, "properties": {}}, {"type": "Feature", "geometry": {"type": "Polygon", "coordinates": [[[696093.336215, 4484844.154147], [696095.542614, 4484844.167429], [696095.551745, 4484839.803536], [696093.346176, 4484839.791917], [696093.336215, 4484844.154147]]]}, "properties": {}}, {"type": "Feature", "geometry": {"type": "Polygon", "coordinates": [[[696093.346176, 4484839.791917], [696095.551745, 4484839.803536], [696095.560876, 4484835.439648], [696093.356136, 4484835.429691], [696093.346176, 4484839.791917]]]}, "properties": {}}, {"type": "Feature", "geometry": {"type": "Polygon", "coordinates": [[[696093.356136, 4484835.429691], [696095.560876, 4484835.439648], [696095.57001, 4484831.075757], [696093.366097, 4484831.067458], [696093.356136, 4484835.429691]]]}, "properties": {}}, {"type": "Feature", "geometry": {"type": "Polygon", "coordinates": [[[696093.366097, 4484831.067458], [696095.57001, 4484831.075757], [696095.579141, 4484826.71187], [696093.376058, 4484826.705231], [696093.366097, 4484831.067458]]]}, "properties": {}}, {"type": "Feature", "geometry": {"type": "Polygon", "coordinates": [[[696093.376058, 4484826.705231], [696095.579141, 4484826.71187], [696095.588271, 4484822.34798], [696093.386019, 4484822.343004], [696093.376058, 4484826.705231]]]}, "properties": {}}, {"type": "Feature", "geometry": {"type": "Polygon", "coordinates": [[[696093.386019, 4484822.343004], [696095.588271, 4484822.34798], [696095.597399, 4484817.984093], [696093.395983, 4484817.980767], [696093.386019, 4484822.343004]]]}, "properties": {}}, {"type": "Feature", "geometry": {"type": "Polygon", "coordinates": [[[696093.395983, 4484817.980767], [696095.597399, 4484817.984093], [696095.606533, 4484813.620203], [696093.405944, 4484813.618543], [696093.395983, 4484817.980767]]]}, "properties": {}}, {"type": "Feature", "geometry": {"type": "Polygon", "coordinates": [[[696093.405944, 4484813.618543], [696095.606533, 4484813.620203], [696095.615664, 4484809.256313], [696093.415902, 4484809.256319], [696093.405944, 4484813.618543]]]}, "properties": {}}, {"type": "Feature", "geometry": {"type": "Polygon", "coordinates": [[[696093.415902, 4484809.256319], [696095.615664, 4484809.256313], [696095.624792, 4484804.892426], [696093.425863, 4484804.894086], [696093.415902, 4484809.256319]]]}, "properties": {}}, {"type": "Feature", "geometry": {"type": "Polygon", "coordinates": [[[696093.425863, 4484804.894086], [696095.624792, 4484804.892426], [696095.633926, 4484800.528526], [696093.435824, 4484800.531846], [696093.425863, 4484804.894086]]]}, "properties": {}}, {"type": "Feature", "geometry": {"type": "Polygon", "coordinates": [[[696093.435824, 4484800.531846], [696095.633926, 4484800.528526], [696095.643057, 4484796.164645], [696093.445788, 4484796.169619], [696093.435824, 4484800.531846]]]}, "properties": {}}, {"type": "Feature", "geometry": {"type": "Polygon", "coordinates": [[[696093.445788, 4484796.169619], [696095.643057, 4484796.164645], [696095.652191, 4484791.800758], [696093.455752, 4484791.807398], [696093.445788, 4484796.169619]]]}, "properties": {}}, {"type": "Feature", "geometry": {"type": "Polygon", "coordinates": [[[696093.455752, 4484791.807398], [696095.652191, 4484791.800758], [696095.661315, 4484787.436871], [696093.465713, 4484787.445164], [696093.455752, 4484791.807398]]]}, "properties": {}}, {"type": "Feature", "geometry": {"type": "Polygon", "coordinates": [[[696093.465713, 4484787.445164], [696095.661315, 4484787.436871], [696095.670449, 4484783.072984], [696093.475671, 4484783.082937], [696093.465713, 4484787.445164]]]}, "properties": {}}, {"type": "Feature", "geometry": {"type": "Polygon", "coordinates": [[[696093.475671, 4484783.082937], [696095.670449, 4484783.072984], [696095.67958, 4484778.709103], [696093.485632, 4484778.720722], [696093.475671, 4484783.082937]]]}, "properties": {}}, {"type": "Feature", "geometry": {"type": "Polygon", "coordinates": [[[696093.485632, 4484778.720722], [696095.67958, 4484778.709103], [696095.688711, 4484774.345192], [696093.495593, 4484774.358483], [696093.485632, 4484778.720722]]]}, "properties": {}}, {"type": "Feature", "geometry": {"type": "Polygon", "coordinates": [[[696093.495593, 4484774.358483], [696095.688711, 4484774.345192], [696095.697845, 4484769.981305], [696093.50556, 4484769.996237], [696093.495593, 4484774.358483]]]}, "properties": {}}, {"type": "Feature", "geometry": {"type": "Polygon", "coordinates": [[[696093.50556, 4484769.996237], [696095.697845, 4484769.981305], [696095.706973, 4484765.61743], [696093.515518, 4484765.634016], [696093.50556, 4484769.996237]]]}, "properties": {}}, {"type": "Feature", "geometry": {"type": "Polygon", "coordinates": [[[696095.524352, 4484852.895205], [696097.732412, 4484852.911804], [696097.740713, 4484848.546255], [696095.533483, 4484848.531316], [696095.524352, 4484852.895205]]]}, "properties": {}}, {"type": "Feature", "geometry": {"type": "Polygon", "coordinates": [[[696095.533483, 4484848.531316], [696097.740713, 4484848.546255], [696097.749014, 4484844.180708], [696095.542614, 4484844.167429], [696095.533483, 4484848.531316]]]}, "properties": {}}, {"type": "Feature", "geometry": {"type": "Polygon", "coordinates": [[[696095.542614, 4484844.167429], [696097.749014, 4484844.180708], [696097.757317, 4484839.815155], [696095.551745, 4484839.803536], [696095.542614, 4484844.167429]]]}, "properties": {}}, {"type": "Feature", "geometry": {"type": "Polygon", "coordinates": [[[696095.551745, 4484839.803536], [696097.757317, 4484839.815155], [696097.765615, 4484835.449607], [696095.560876, 4484835.439648], [696095.551745, 4484839.803536]]]}, "properties": {}}, {"type": "Feature", "geometry": {"type": "Polygon", "coordinates": [[[696095.560876, 4484835.439648], [696097.765615, 4484835.449607], [696097.773913, 4484831.084057], [696095.57001, 4484831.075757], [696095.560876, 4484835.439648]]]}, "properties": {}}, {"type": "Feature", "geometry": {"type": "Polygon", "coordinates": [[[696095.57001, 4484831.075757], [696097.773913, 4484831.084057], [696097.782217, 4484826.718513], [696095.579141, 4484826.71187], [696095.57001, 4484831.075757]]]}, "properties": {}}, {"type": "Feature", "geometry": {"type": "Polygon", "coordinates": [[[696095.579141, 4484826.71187], [696097.782217, 4484826.718513], [696097.790518, 4484822.352963], [696095.588271, 4484822.34798], [696095.579141, 4484826.71187]]]}, "properties": {}}, {"type": "Feature", "geometry": {"type": "Polygon", "coordinates": [[[696095.588271, 4484822.34798], [696097.790518, 4484822.352963], [696097.798821, 4484817.987413], [696095.597399, 4484817.984093], [696095.588271, 4484822.34798]]]}, "properties": {}}, {"type": "Feature", "geometry": {"type": "Polygon", "coordinates": [[[696095.597399, 4484817.984093], [696097.798821, 4484817.987413], [696097.807119, 4484813.621866], [696095.606533, 4484813.620203], [696095.597399, 4484817.984093]]]}, "properties": {}}, {"type": "Feature", "geometry": {"type": "Polygon", "coordinates": [[[696095.606533, 4484813.620203], [696097.807119, 4484813.621866], [696097.81542, 4484809.256319], [696095.615664, 4484809.256313], [696095.606533, 4484813.620203]]]}, "properties": {}}, {"type": "Feature", "geometry": {"type": "Polygon", "coordinates": [[[696095.615664, 4484809.256313], [696097.81542, 4484809.256319], [696097.823727, 4484804.89076], [696095.624792, 4484804.892426], [696095.615664, 4484809.256313]]]}, "properties": {}}, {"type": "Feature", "geometry": {"type": "Polygon", "coordinates": [[[696095.624792, 4484804.892426], [696097.823727, 4484804.89076], [696097.832021, 4484800.525213], [696095.633926, 4484800.528526], [696095.624792, 4484804.892426]]]}, "properties": {}}, {"type": "Feature", "geometry": {"type": "Polygon", "coordinates": [[[696095.633926, 4484800.528526], [696097.832021, 4484800.525213], [696097.840319, 4484796.15966], [696095.643057, 4484796.164645], [696095.633926, 4484800.528526]]]}, "properties": {}}, {"type": "Feature", "geometry": {"type": "Polygon", "coordinates": [[[696095.643057, 4484796.164645], [696097.840319, 4484796.15966], [696097.848626, 4484791.794119], [696095.652191, 4484791.800758], [696095.643057, 4484796.164645]]]}, "properties": {}}, {"type": "Feature", "geometry": {"type": "Polygon", "coordinates": [[[696095.652191, 4484791.800758], [696097.848626, 4484791.794119], [696097.856927, 4484787.428566], [696095.661315, 4484787.436871], [696095.652191, 4484791.800758]]]}, "properties": {}}, {"type": "Feature", "geometry": {"type": "Polygon", "coordinates": [[[696095.661315, 4484787.436871], [696097.856927, 4484787.428566], [696097.865228, 4484783.063019], [696095.670449, 4484783.072984], [696095.661315, 4484787.436871]]]}, "properties": {}}, {"type": "Feature", "geometry": {"type": "Polygon", "coordinates": [[[696095.670449, 4484783.072984], [696097.865228, 4484783.063019], [696097.873525, 4484778.697484], [696095.67958, 4484778.709103], [696095.670449, 4484783.072984]]]}, "properties": {}}, {"type": "Feature", "geometry": {"type": "Polygon", "coordinates": [[[696095.67958, 4484778.709103], [696097.873525, 4484778.697484], [696097.881829, 4484774.331919], [696095.688711, 4484774.345192], [696095.67958, 4484778.709103]]]}, "properties": {}}, {"type": "Feature", "geometry": {"type": "Polygon", "coordinates": [[[696095.688711, 4484774.345192], [696097.881829, 4484774.331919], [696097.89013, 4484769.96636], [696095.697845, 4484769.981305], [696095.688711, 4484774.345192]]]}, "properties": {}}, {"type": "Feature", "geometry": {"type": "Polygon", "coordinates": [[[696095.697845, 4484769.981305], [696097.89013, 4484769.96636], [696097.898431, 4484765.600825], [696095.706973, 4484765.61743], [696095.697845, 4484769.981305]]]}, "properties": {}}], "crs": {"type": "name", "properties": {"name": "EPSG:32615"}}}